{
  "type": "FeatureCollection",
  "features": [
    {
      "type": "Feature",
      "properties": {
        "norad_id": 31451,
        "name": "FENGYUN 1C DEB",
        "group": "fengyun-1c-debris",
        "lat": -55.61256944454555,
        "lon": -165.55249505432076,
        "alt_km": 833.0149590224764,
        "timestamp": "2025-12-11T08:58:27.406473+00:00",
        "meta_object_name": "FENGYUN 1C DEB",
        "meta_object_id": "1999-025BUP",
        "meta_epoch": "2025-12-10T20:48:32.294016",
        "meta_mean_motion": 14.13619047,
        "meta_eccentricity": 0.0031122,
        "meta_inclination": 98.764,
        "meta_ra_of_asc_node": 26.9773,
        "meta_arg_of_pericenter": 216.9728,
        "meta_mean_anomaly": 321.3199,
        "meta_ephemeris_type": 0,
        "meta_classification_type": "U",
        "meta_norad_cat_id": 31451,
        "meta_element_set_no": 999,
        "meta_rev_at_epoch": 95983,
        "meta_bstar": 0.00051459,
        "meta_mean_motion_dot": 9.32e-06,
        "meta_mean_motion_ddot": 0,
        "tle_line1": "1 31451U 99025BUP 25344.86704044  .00000932  00000+0  51459-3 0  9990",
        "tle_line2": "2 31451  98.7640  26.9773 0031122 216.9728 321.3199 14.13619047959836"
      },
      "geometry": {
        "type": "Point",
        "coordinates": [
          -165.55249505432076,
          -55.61256944454555
        ]
      }
    },
    {
      "type": "Feature",
      "properties": {
        "norad_id": 31452,
        "name": "FENGYUN 1C DEB",
        "group": "fengyun-1c-debris",
        "lat": 52.915574194825375,
        "lon": 163.9852475000479,
        "alt_km": 807.5010586249218,
        "timestamp": "2025-12-11T08:58:27.406484+00:00",
        "meta_object_name": "FENGYUN 1C DEB",
        "meta_object_id": "1999-025BUQ",
        "meta_epoch": "2025-12-10T10:19:20.416224",
        "meta_mean_motion": 14.1516278,
        "meta_eccentricity": 0.0040701,
        "meta_inclination": 98.6579,
        "meta_ra_of_asc_node": 331.44,
        "meta_arg_of_pericenter": 134.3874,
        "meta_mean_anomaly": 226.0645,
        "meta_ephemeris_type": 0,
        "meta_classification_type": "U",
        "meta_norad_cat_id": 31452,
        "meta_element_set_no": 999,
        "meta_rev_at_epoch": 96173,
        "meta_bstar": 0.00053376869,
        "meta_mean_motion_dot": 1.002e-05,
        "meta_mean_motion_ddot": 0,
        "tle_line1": "1 31452U 99025BUQ 25344.43009741  .00001002  00000+0  53377-3 0  9996",
        "tle_line2": "2 31452  98.6579 331.4400 0040701 134.3874 226.0645 14.15162780961734"
      },
      "geometry": {
        "type": "Point",
        "coordinates": [
          163.9852475000479,
          52.915574194825375
        ]
      }
    },
    {
      "type": "Feature",
      "properties": {
        "norad_id": 31455,
        "name": "FENGYUN 1C DEB",
        "group": "fengyun-1c-debris",
        "lat": 53.495025352845445,
        "lon": 165.42543897670276,
        "alt_km": 793.3444720217612,
        "timestamp": "2025-12-11T08:58:27.406494+00:00",
        "meta_object_name": "FENGYUN 1C DEB",
        "meta_object_id": "1999-025BUT",
        "meta_epoch": "2025-12-10T22:11:38.880384",
        "meta_mean_motion": 14.11425206,
        "meta_eccentricity": 0.021871,
        "meta_inclination": 98.5742,
        "meta_ra_of_asc_node": 333.2336,
        "meta_arg_of_pericenter": 56.422,
        "meta_mean_anomaly": 305.7624,
        "meta_ephemeris_type": 0,
        "meta_classification_type": "U",
        "meta_norad_cat_id": 31455,
        "meta_element_set_no": 999,
        "meta_rev_at_epoch": 96078,
        "meta_bstar": 0.00038354,
        "meta_mean_motion_dot": 8.28e-06,
        "meta_mean_motion_ddot": 0,
        "tle_line1": "1 31455U 99025BUT 25344.92475556  .00000828  00000+0  38354-3 0  9997",
        "tle_line2": "2 31455  98.5742 333.2336 0218710  56.4220 305.7624 14.11425206960789"
      },
      "geometry": {
        "type": "Point",
        "coordinates": [
          165.42543897670276,
          53.495025352845445
        ]
      }
    },
    {
      "type": "Feature",
      "properties": {
        "norad_id": 31456,
        "name": "FENGYUN 1C DEB",
        "group": "fengyun-1c-debris",
        "lat": -46.08990715184627,
        "lon": 96.73179743062767,
        "alt_km": 709.3990585649326,
        "timestamp": "2025-12-11T08:58:27.406504+00:00",
        "meta_object_name": "FENGYUN 1C DEB",
        "meta_object_id": "1999-025BUU",
        "meta_epoch": "2025-12-08T12:55:41.925216",
        "meta_mean_motion": 14.42364551,
        "meta_eccentricity": 0.0067565,
        "meta_inclination": 98.5774,
        "meta_ra_of_asc_node": 84.8613,
        "meta_arg_of_pericenter": 327.2292,
        "meta_mean_anomaly": 32.4714,
        "meta_ephemeris_type": 0,
        "meta_classification_type": "U",
        "meta_norad_cat_id": 31456,
        "meta_element_set_no": 999,
        "meta_rev_at_epoch": 97406,
        "meta_bstar": 0.0013396,
        "meta_mean_motion_dot": 4.506e-05,
        "meta_mean_motion_ddot": 0,
        "tle_line1": "1 31456U 99025BUU 25342.53867969  .00004506  00000+0  13396-2 0  9991",
        "tle_line2": "2 31456  98.5774  84.8613 0067565 327.2292  32.4714 14.42364551974069"
      },
      "geometry": {
        "type": "Point",
        "coordinates": [
          96.73179743062767,
          -46.08990715184627
        ]
      }
    },
    {
      "type": "Feature",
      "properties": {
        "norad_id": 31459,
        "name": "FENGYUN 1C DEB",
        "group": "fengyun-1c-debris",
        "lat": -67.43341885090496,
        "lon": 53.45086971742868,
        "alt_km": 777.9559712930377,
        "timestamp": "2025-12-11T08:58:27.406514+00:00",
        "meta_object_name": "FENGYUN 1C DEB",
        "meta_object_id": "1999-025BUX",
        "meta_epoch": "2025-12-08T23:17:29.370912",
        "meta_mean_motion": 14.44022338,
        "meta_eccentricity": 0.0093801,
        "meta_inclination": 98.1755,
        "meta_ra_of_asc_node": 251.3793,
        "meta_arg_of_pericenter": 143.1676,
        "meta_mean_anomaly": 217.6008,
        "meta_ephemeris_type": 0,
        "meta_classification_type": "U",
        "meta_norad_cat_id": 31459,
        "meta_element_set_no": 999,
        "meta_rev_at_epoch": 64503,
        "meta_bstar": 0.0015164,
        "meta_mean_motion_dot": 5.43e-05,
        "meta_mean_motion_ddot": 0,
        "tle_line1": "1 31459U 99025BUX 25342.97047883  .00005430  00000+0  15164-2 0  9999",
        "tle_line2": "2 31459  98.1755 251.3793 0093801 143.1676 217.6008 14.44022338645031"
      },
      "geometry": {
        "type": "Point",
        "coordinates": [
          53.45086971742868,
          -67.43341885090496
        ]
      }
    },
    {
      "type": "Feature",
      "properties": {
        "norad_id": 31462,
        "name": "FENGYUN 1C DEB",
        "group": "fengyun-1c-debris",
        "lat": -40.63228080301157,
        "lon": 176.27429766378137,
        "alt_km": 833.0474515130654,
        "timestamp": "2025-12-11T08:58:27.406527+00:00",
        "meta_object_name": "FENGYUN 1C DEB",
        "meta_object_id": "1999-025BVA",
        "meta_epoch": "2025-12-10T08:12:26.265024",
        "meta_mean_motion": 14.13005923,
        "meta_eccentricity": 0.00319673,
        "meta_inclination": 98.6905,
        "meta_ra_of_asc_node": 2.814,
        "meta_arg_of_pericenter": 211.2699,
        "meta_mean_anomaly": 163.3139,
        "meta_ephemeris_type": 0,
        "meta_classification_type": "U",
        "meta_norad_cat_id": 31462,
        "meta_element_set_no": 999,
        "meta_rev_at_epoch": 95822,
        "meta_bstar": 0.00048932304,
        "meta_mean_motion_dot": 8.74e-06,
        "meta_mean_motion_ddot": 0,
        "tle_line1": "1 31462U 99025BVA 25344.34197066  .00000874  00000+0  48932-3 0  9992",
        "tle_line2": "2 31462  98.6905   2.8140 0031967 211.2699 163.3139 14.13005923958226"
      },
      "geometry": {
        "type": "Point",
        "coordinates": [
          176.27429766378137,
          -40.63228080301157
        ]
      }
    },
    {
      "type": "Feature",
      "properties": {
        "norad_id": 31463,
        "name": "FENGYUN 1C DEB",
        "group": "fengyun-1c-debris",
        "lat": 67.87657238597554,
        "lon": -56.17919140999269,
        "alt_km": 623.9052247250438,
        "timestamp": "2025-12-11T08:58:27.406537+00:00",
        "meta_object_name": "FENGYUN 1C DEB",
        "meta_object_id": "1999-025BVB",
        "meta_epoch": "2025-12-08T17:09:36.295488",
        "meta_mean_motion": 14.369225,
        "meta_eccentricity": 0.02139366,
        "meta_inclination": 99.0801,
        "meta_ra_of_asc_node": 324.1798,
        "meta_arg_of_pericenter": 51.5947,
        "meta_mean_anomaly": 310.4236,
        "meta_ephemeris_type": 0,
        "meta_classification_type": "U",
        "meta_norad_cat_id": 31463,
        "meta_element_set_no": 999,
        "meta_rev_at_epoch": 64662,
        "meta_bstar": 0.00090062537,
        "meta_mean_motion_dot": 3.414e-05,
        "meta_mean_motion_ddot": 0,
        "tle_line1": "1 31463U 99025BVB 25342.71500342  .00003414  00000+0  90063-3 0  9992",
        "tle_line2": "2 31463  99.0801 324.1798 0213936  51.5947 310.4236 14.36922500646620"
      },
      "geometry": {
        "type": "Point",
        "coordinates": [
          -56.17919140999269,
          67.87657238597554
        ]
      }
    }
  ]
}